ONEWEB-0623             
1 55164U 23004AA  25334.74882519 -.00000100  00000+0 -29075-3 0  9999
2 55164  87.9122  45.3453 0001397 127.9397 232.1861 13.17650765141453
ONEWEB-0624             
1 55165U 23004AB  25334.59369444  .00000107  00000+0  26128-3 0  9991
2 55165  87.8946  30.0780 0001560 108.6395 251.4903 13.12921112142013
ONEWEB-0625             
1 55166U 23004AC  25334.73869188 -.00000093  00000+0 -27393-3 0  9999
2 55166  87.9121  45.3424 0001917 102.2404 257.8942 13.17651316141441
ONEWEB-0626             
1 55167U 23004AD  25334.72857014  .00000010  00000+0 -74931-5 0  9994
2 55167  87.9122  45.3443 0001731  84.3807 275.7522 13.17647817141449
ONEWEB-0627             
1 55168U 23004AE  25334.71675737  .00000000  00000+0 -32385-4 0  9999
2 55168  87.9121  45.3471 0001310 116.6691 243.4575 13.17648529141444
ONEWEB-0628             
1 55169U 23004AF  25334.65375725 -.00000393  00000+0 -11292-2 0  9995
2 55169  87.8955  30.0896 0001620 124.2733 235.8549 13.12441305141991
ONEWEB-0629             
1 55170U 23004AG  25334.76821225 -.00000035  00000+0 -12379-3 0  9991
2 55170  87.9119  45.3337 0001945 111.2523 248.8817 13.17647486141454
ONEWEB-0631             
1 55171U 23004AH  25334.83584089  .00000096  00000+0  21190-3 0  9990
2 55171  87.9197  14.8285 0001474  79.9873 280.1425 13.18685334143539
